SL-16 R/B               
1 25400U 98043G   25363.84836744  .00000140  00000+0  77587-4 0  9990
2 25400  98.8149 311.7643 0009214 212.0160 148.0461 14.26030023429038
SL-16 R/B               
1 25407U 98045B   25364.28189423  .00000136  00000+0  92940-4 0  9998
2 25407  71.0125 327.5351 0005828 147.2419 212.9067 14.16181078417278
ISS (ZARYA)             
1 25544U 98067A   25364.14573551  .00004955  00000+0  98268-4 0  9990
2 25544  51.6332  56.2707 0007469 318.0919  41.9497 15.48928231545557
CZ-4B R/B               
1 25732U 99025C   25364.10315181  .00000126  00000+0  81697-4 0  9997
2 25732  98.6745  44.9927 0037085 183.5165 231.5876 14.18248158378302
OKEAN-O                 
1 25860U 99039A   25364.16293051  .00001178  00000+0  16193-3 0  9997
2 25860  97.9579  59.7119 0001239 115.2186 244.9154 14.80193913424109
SL-16 R/B               
1 25861U 99039B   25364.14130772  .00001028  00000+0  13744-3 0  9999
2 25861  98.0102  58.2917 0015981 120.7381 239.5408 14.81614289426560
DELTA 2 R/B             
1 25876U 99041E   25363.99070883  .00002750  00000+0  48049-3 0  9995
2 25876  51.7592 219.5797 0504345 142.6085 221.1086 14.11455968353180
HELIOS 1B               
1 25977U 99064A   25364.22798116  .00003057  00000+0  34484-3 0  9994
2 25977  98.1752 259.4126 0000674  34.7155 325.4104 14.87360461674933
TERRA                   
1 25994U 99068A   25364.26861372  .00000792  00000+0  17083-3 0  9995
2 25994  97.9725  55.3076 0003247  59.1395   5.7031 14.60923666384941
SL-16 R/B               
1 26070U 00006B   25364.06731002  .00000325  00000+0  18937-3 0  9990
2 26070  71.0011 244.2254 0018666 285.2561  74.6498 14.15811809338703
TITAN 4B R/B            
1 26474U 00047B   25364.24348826  .00005336  00000+0  34019-3 0  9997
2 26474  67.9889 235.6921 0037765 123.1079 237.3704 15.08917604382438
ENVISAT                 
1 27386U 02009A   25352.94754304  .00000081  00000+0  39999-4 0  9991
2 27386  98.3609 303.5309 0001126  84.8976 298.2993 14.39001403247569
